TJS-5                   
1 44978U 20002A   26197.86149172 -.00000352  00000+0  00000+0 0  9998
2 44978   0.0686  76.2634 0007740 339.0323 297.0206  1.00270000 24005
GSAT-30                 
1 45026U 20005A   26196.35955691 -.00000174  00000+0  00000+0 0  9992
2 45026   0.0481  91.8619 0003256   4.1984  49.5758  1.00270719 23794
EUTELSAT KONNECT        
1 45027U 20005B   26197.55636397  .00000038  00000+0  00000+0 0  9993
2 45027   0.0689  93.4454 0001825 148.8611 259.5644  1.00268662 24638
JCSAT-17                
1 45245U 20013A   26197.79588567 -.00000324  00000+0  00000+0 0  9994
2 45245   5.3923 357.1508 0003129 127.6024 232.4009  1.00271839 23523
GEO-KOMPSAT-2B          
1 45246U 20013B   26197.36663051  .00000000  00000+0  00000+0 0  9990
2 45246   0.0193 243.5467 0000644 352.7227 318.1708  1.00265681 23573
BEIDOU-3 G2             
1 45344U 20017A   26197.76372832 -.00000151  00000+0  00000+0 0  9999
2 45344   2.9229  47.8283 0002098  61.0937 180.6172  1.00269158 23555
AEHF-6 (USA 298)        
1 45465U 20022B   26197.79623235 -.00000307  00000+0  00000+0 0  9991
2 45465   2.4845 301.5426 0041995  15.4104  42.0762  1.00270767 23313
BEIDOU-3 G3             
1 45807U 20040A   26197.86209839 -.00000365  00000+0  00000+0 0  9993
2 45807   2.5183  67.4809 0002220 308.0990 339.9505  1.00275657 22364
APSTAR-6D               
1 45863U 20045A   26197.86677841 -.00000329  00000+0  00000+0 0  9992
2 45863   0.0418  89.7396 0001798 331.2185 319.7690  1.00261836 22153
KOREASAT 116            
1 45920U 20048A   26197.79189898 -.00000372  00000+0  00000+0 0  9999
2 45920   0.0232 304.3904 0001009 201.4712 189.9918  1.00267708 21930
EXPRESS 103             
1 45985U 20053A   26197.85932503 -.00000291  00000+0  00000+0 0  9992
2 45985   0.0299 272.4584 0000596 184.6980 243.3785  1.00271288 21948
EXPRESS 80              
1 45986U 20053B   26196.96170052  .00000000  00000+0  00000+0 0  9994
2 45986   0.0169  28.0360 0001661 201.5383 130.4112  1.00275998 21922
BSAT-4B                 
1 46112U 20056A   26197.75204308 -.00000360  00000+0  00000+0 0  9999
2 46112   0.0407 144.5586 0004332 344.4802 186.0981  1.00271450 21687
MEV-2                   
1 46113U 20056B   26197.82892022 -.00000021  00000+0  00000+0 0  9998
2 46113   0.0550 253.5568 0000370 344.7769 353.7286  1.00272356 81011
GALAXY 30 (G-30)        
1 46114U 20056C   26197.74413846  .00000000  00000+0  00000+0 0  9999
2 46114   0.0213  57.4672 0002193  59.3250 320.6798  1.00270671 21589
GAOFEN-13 01            
1 46610U 20071A   26197.79241899 -.00000373  00000+0  00000+0 0  9993
2 46610   0.4727  86.1044 0045212 120.5945 131.3354  1.00264895 21213
TIANTONG-1 2            
1 46916U 20082A   26197.72238503 -.00000366  00000+0  00000+0 0  9997
2 46916   0.7564 331.9629 0001229 127.7602 219.8208  1.00272904 20942
LUCAS (JDRS-1)          
1 47202U 20089A   26197.77523416 -.00000246  00000+0  00000+0 0  9995
2 47202   0.0713 268.4160 0001636 179.8119 216.2517  1.00269848 20719
SXM-7                   
1 47240U 20096A   26197.11047833 -.00000216  00000+0  00000+0 0  9994
2 47240   0.0264  97.1091 0003528  25.9654 125.4849  1.00270266  7731
CMS-01                  
1 47256U 20099A   26197.78539896 -.00000175  00000+0  00000+0 0  9996
2 47256   0.0790  90.8040 0003423 175.3137  34.2234  1.00270771 20490
TURKSAT 5A              
1 47306U 21001A   26195.92092921  .00000145  00000+0  00000+0 0  9999
2 47306   0.0186  72.0805 0000214 188.2412  34.9010  1.00271052 20245
TIANTONG-1 3            
1 47321U 21003A   26197.78505229 -.00000163  00000+0  00000+0 0  9995
2 47321   1.7349 341.1546 0003039 143.3720 174.2252  1.00269970 20258
TJS-6                   
1 47613U 21010A   26197.80429238  .00000032  00000+0  00000+0 0  9999
2 47613   0.1760 261.5173 0003042 241.4045 259.7239  1.00273020 20106
SBIRS GEO-5 (USA 315)   
1 48618U 21042A   26197.85880505 -.00000275  00000+0  00000+0 0  9993
2 48618   5.0667 329.3517 0001490 154.0239 214.2784  1.00270708 19071
FENGYUN 4B              
1 48808U 21047A   26197.86088506 -.00000341  00000+0  00000+0 0  9995
2 48808   0.2245  79.9538 0006846 272.3459 356.8302  1.00278513 18867
SXM-8                   
1 48838U 21049A   26197.82335913 -.00000216  00000+0  00000+0 0  9994
2 48838   0.0188  50.3175 0005535 341.7212 113.8636  1.00270204 18888
TIANLIAN 1-05           
1 49011U 21063A   26197.86641824  .00000097  00000+0  00000+0 0  9995
2 49011   1.6686  80.4496 0001045  88.3968  94.6060  1.00272890 18370
STAR ONE D2             
1 49055U 21069A   26197.54119725  .00000000  00000+0  00000+0 0  9998
2 49055   0.0108  25.1306 0002674 115.4268 278.5701  1.00272326 18234
EUTELSAT QUANTUM        
1 49056U 21069B   26197.81017090  .00000116  00000+0  00000+0 0  9999
2 49056   0.0094  19.4461 0002078  90.1787 164.3508  1.00272125 18223
ZHONGXING-2E            
1 49062U 21071A   26197.71672788  .00000000  00000+0  00000+0 0  9991
2 49062   0.0185 242.0375 0001321 261.8572 146.7479  1.00267463 18330
TJS-7                   
1 49115U 21077A   26197.82041247 -.00000134  00000+0  00000+0 0  9997
2 49115   0.2808 263.8888 0003075 112.7689 113.8071  1.00272807  9841
CHINASAT 9B             
1 49125U 21080A   26197.86027838 -.00000322  00000+0  00000+0 0  9995
2 49125   0.0546 247.1331 0002220 258.9043 199.7217  1.00267953 17946
