OBJECT_NAME,OBJECT_ID,EPOCH,MEAN_MOTION,ECCENTRICITY,INCLINATION,RA_OF_ASC_NODE,ARG_OF_PERICENTER,MEAN_ANOMALY,EPHEMERIS_TYPE,CLASSIFICATION_TYPE,NORAD_CAT_ID,ELEMENT_SET_NO,REV_AT_EPOCH,BSTAR,MEAN_MOTION_DOT,MEAN_MOTION_DDOT
TJS-5,2020-002A,2026-07-16T20:40:32.884608,1.00270000,.000774,0.0686,76.2634,339.0323,297.0206,0,U,44978,999,2400,0,-.352E-5,0
GSAT-30,2020-005A,2026-07-15T08:37:45.717024,1.00270719,.00032563,0.0481,91.8619,4.1984,49.5758,0,U,45026,999,2379,0,-.174E-5,0
EUTELSAT KONNECT,2020-005B,2026-07-16T13:21:09.847008,1.00268662,.0001825,0.0689,93.4454,148.8611,259.5644,0,U,45027,999,2463,0,.38E-6,0
JCSAT-17,2020-013A,2026-07-16T19:06:04.521888,1.00271839,.0003129,5.3923,357.1508,127.6024,232.4009,0,U,45245,999,2352,0,-.324E-5,0
GEO-KOMPSAT-2B,2020-013B,2026-07-16T08:47:56.876064,1.00265681,.0000644,0.0193,243.5467,352.7227,318.1708,0,U,45246,999,2357,0,0,0
BEIDOU-3 G2,2020-017A,2026-07-16T18:19:46.126848,1.00269158,.0002098,2.9229,47.8283,61.0937,180.6172,0,U,45344,999,2355,0,-.151E-5,0
AEHF-6 (USA 298),2020-022B,2026-07-16T19:06:34.475040,1.00270767,.0041995,2.4845,301.5426,15.4104,42.0762,0,U,45465,999,2331,0,-.307E-5,0
BEIDOU-3 G3,2020-040A,2026-07-16T20:41:25.300896,1.00275657,.000222,2.5183,67.4809,308.0990,339.9505,0,U,45807,999,2236,0,-.365E-5,0
APSTAR-6D,2020-045A,2026-07-16T20:48:09.654624,1.00261836,.0001798,0.0418,89.7396,331.2185,319.7690,0,U,45863,999,2215,0,-.329E-5,0
KOREASAT 116,2020-048A,2026-07-16T19:00:20.071872,1.00267708,.0001009,0.0232,304.3904,201.4712,189.9918,0,U,45920,999,2193,0,-.372E-5,0
EXPRESS 103,2020-053A,2026-07-16T20:37:25.682592,1.00271288,.0000596,0.0299,272.4584,184.6980,243.3785,0,U,45985,999,2194,0,-.291E-5,0
EXPRESS 80,2020-053B,2026-07-15T23:04:50.924928,1.00275998,.0001661,0.0169,28.0360,201.5383,130.4112,0,U,45986,999,2192,0,0,0
BSAT-4B,2020-056A,2026-07-16T18:02:56.522112,1.00271450,.0004332,0.0407,144.5586,344.4802,186.0981,0,U,46112,999,2168,0,-.36E-5,0
MEV-2,2020-056B,2026-07-16T19:53:38.707008,1.00272356,.000037,0.0550,253.5568,344.7769,353.7286,0,U,46113,999,8101,0,-.21E-6,0
GALAXY 30 (G-30),2020-056C,2026-07-16T17:51:33.562944,1.00270671,.0002193,0.0213,57.4672,59.3250,320.6798,0,U,46114,999,2158,0,0,0
GAOFEN-13 01,2020-071A,2026-07-16T19:01:05.000736,1.00264895,.0045212,0.4727,86.1044,120.5945,131.3354,0,U,46610,999,2121,0,-.373E-5,0
TIANTONG-1 2,2020-082A,2026-07-16T17:20:14.066592,1.00272904,.0001229,0.7564,331.9629,127.7602,219.8208,0,U,46916,999,2094,0,-.366E-5,0
LUCAS (JDRS-1),2020-089A,2026-07-16T18:36:20.231424,1.00269848,.0001636,0.0713,268.4160,179.8119,216.2517,0,U,47202,999,2071,0,-.246E-5,0
SXM-7,2020-096A,2026-07-16T02:39:05.327712,1.00270266,.00035283,0.0264,97.1091,25.9654,125.4849,0,U,47240,999,773,0,-.216E-5,0
CMS-01,2020-099A,2026-07-16T18:50:58.470144,1.00270771,.0003423,0.0790,90.8040,175.3137,34.2234,0,U,47256,999,2049,0,-.175E-5,0
TURKSAT 5A,2021-001A,2026-07-14T22:06:08.283744,1.00271052,.0000214,0.0186,72.0805,188.2412,34.9010,0,U,47306,999,2024,0,.145E-5,0
TIANTONG-1 3,2021-003A,2026-07-16T18:50:28.517856,1.00269970,.0003039,1.7349,341.1546,143.3720,174.2252,0,U,47321,999,2025,0,-.163E-5,0
TJS-6,2021-010A,2026-07-16T19:18:10.861632,1.00273020,.0003042,0.1760,261.5173,241.4045,259.7239,0,U,47613,999,2010,0,.32E-6,0
SBIRS GEO-5 (USA 315),2021-042A,2026-07-16T20:36:40.756320,1.00270708,.000149,5.0667,329.3517,154.0239,214.2784,0,U,48618,999,1907,0,-.275E-5,0
FENGYUN 4B,2021-047A,2026-07-16T20:39:40.469184,1.00278513,.0006846,0.2245,79.9538,272.3459,356.8302,0,U,48808,999,1886,0,-.341E-5,0
SXM-8,2021-049A,2026-07-16T19:45:38.228832,1.00270204,.0005535,0.0188,50.3175,341.7212,113.8636,0,U,48838,999,1888,0,-.216E-5,0
TIANLIAN 1-05,2021-063A,2026-07-16T20:47:38.535936,1.00272890,.0001045,1.6686,80.4496,88.3968,94.6060,0,U,49011,999,1837,0,.97E-6,0
STAR ONE D2,2021-069A,2026-07-16T12:59:19.442400,1.00272326,.0002674,0.0108,25.1306,115.4268,278.5701,0,U,49055,999,1823,0,0,0
EUTELSAT QUANTUM,2021-069B,2026-07-16T19:26:38.765760,1.00272125,.0002078,0.0094,19.4461,90.1787,164.3508,0,U,49056,999,1822,0,.116E-5,0
ZHONGXING-2E,2021-071A,2026-07-16T17:12:05.288832,1.00267463,.0001321,0.0185,242.0375,261.8572,146.7479,0,U,49062,999,1833,0,0,0
TJS-7,2021-077A,2026-07-16T19:41:23.637408,1.00272807,.0003075,0.2808,263.8888,112.7689,113.8071,0,U,49115,999,984,0,-.134E-5,0
CHINASAT 9B,2021-080A,2026-07-16T20:38:48.052032,1.00267953,.000222,0.0546,247.1331,258.9043,199.7217,0,U,49125,999,1794,0,-.322E-5,0
